NORAD_CAT_ID,OBJECT_NAME,OBJECT_TYPE,EPOCH,MEAN_MOTION,ECCENTRICITY,INCLINATION,RA_OF_ASC_NODE,ARG_OF_PERICENTER,MEAN_ANOMALY,BSTAR,MEAN_MOTION_DOT,MEAN_MOTION_DDOT,TLE_LINE0,TLE_LINE1,TLE_LINE2,SEMIMAJOR_AXIS,PERIOD,APOGEE,PERIGEE,DECAYED
53838.0,STARLINK-4773,PAYLOAD,2023-11-26 13:22:57,15.08860439,0.000143,53.218,78.8516,73.8339,286.281,0.00034334,5.184e-05,0.0,0 STARLINK-4773,1 53838U 22114W   23330.55760946  .00005184  00000-0  34334-3 0  9998,2 53838  53.2180  78.8516 0001430  73.8339 286.2810 15.08860439 67042,6917.818,95.436,540.672,538.694,0.0
53838.0,STARLINK-4773,PAYLOAD,2023-11-26 16:33:43,15.08865557,0.0001377,53.2165,78.2599,76.7061,283.4085,0.00039085,5.942e-05,0.0,0 STARLINK-4773,1 53838U 22114W   23330.69008524  .00005942  00000-0  39085-3 0  9990,2 53838  53.2165  78.2599 0001377  76.7061 283.4085 15.08865557 66525,6917.802,95.436,540.62,538.715,0.0
53838.0,STARLINK-4773,PAYLOAD,2023-11-27 11:38:22,15.08827562,0.0001501,53.2184,74.6866,94.0204,266.096,-0.00035255,-5.892e-05,0.0,0 STARLINK-4773,1 53838U 22114W   23331.48498641 -.00005892  00000-0 -35255-3 0  9992,2 53838  53.2184  74.6866 0001501  94.0204 266.0960 15.08827562 66640,6917.918,95.438,540.822,538.745,0.0
53838.0,STARLINK-4773,PAYLOAD,2023-11-27 14:49:09,15.08827491,0.0001517,53.2187,74.0919,85.8658,274.2508,-0.0003226,-5.417e-05,0.0,0 STARLINK-4773,1 53838U 22114W   23331.61746803 -.00005417  00000-0 -32260-3 0  9999,2 53838  53.2187  74.0919 0001517  85.8658 274.2508 15.08827491 67207,6917.919,95.438,540.833,538.734,0.0
53838.0,STARLINK-4773,PAYLOAD,2023-11-27 16:24:32,15.08833436,0.0001446,53.2192,73.7948,91.0391,269.0767,-0.00017928,-3.14e-05,0.0,0 STARLINK-4773,1 53838U 22114W   23331.68371458 -.00003140  00000-0 -17928-3 0  9991,2 53838  53.2192  73.7948 0001446  91.0391 269.0767 15.08833436 67211,6917.9,95.438,540.766,538.765,0.0
53838.0,STARLINK-4773,PAYLOAD,2023-11-28 11:29:09,15.08848206,0.0001734,53.2192,70.2346,54.5646,305.5508,-2.973e-05,-7.61e-06,0.0,0 STARLINK-4773,1 53838U 22114W   23332.47858199 -.00000761  00000-0 -29730-4 0  9992,2 53838  53.2192  70.2346 0001734  54.5646 305.5508 15.08848206 66794,6917.855,95.437,540.92,538.521,0.0
53838.0,STARLINK-4773,PAYLOAD,2023-11-28 13:04:32,15.08841803,0.0001959,53.2192,69.9371,51.7364,308.3805,0.0001114,1.485e-05,0.0,0 STARLINK-4773,1 53838U 22114W   23332.54482247  .00001485  00000-0  11140-3 0  9994,2 53838  53.2192  69.9371 0001959  51.7364 308.3805 15.08841803 67341,6917.875,95.437,541.095,538.385,0.0
53838.0,STARLINK-4773,PAYLOAD,2023-11-28 16:15:17,15.08866828,0.0001443,53.2191,69.3355,97.8992,262.2164,6.2058e-05,7e-06,0.0,0 STARLINK-4773,1 53838U 22114W   23332.67728274  .00000700  00000-0  62058-4 0  9995,2 53838  53.2191  69.3355 0001443  97.8992 262.2164 15.08866828 66824,6917.798,95.436,540.662,538.665,0.0
53838.0,STARLINK-4773,PAYLOAD,2023-11-29 11:19:56,15.08833173,0.0001766,53.2212,65.76,108.9216,251.1968,0.00019253,2.777e-05,0.0,0 STARLINK-4773,1 53838U 22114W   23333.47218556  .00002777  00000-0  19253-3 0  9995,2 53838  53.2212  65.7600 0001766 108.9216 251.1968 15.08833173 66941,6917.901,95.438,540.988,538.545,0.0
53838.0,STARLINK-4773,PAYLOAD,2023-11-29 12:55:19,15.08846314,0.0001539,53.22,65.471,67.5362,292.5793,0.00026387,3.915e-05,0.0,0 STARLINK-4773,1 53838U 22114W   23333.53841752  .00003915  00000-0  26387-3 0  9993,2 53838  53.2200  65.4710 0001539  67.5362 292.5793 15.08846314 67494,6917.861,95.437,540.791,538.661,0.0
53838.0,STARLINK-4773,PAYLOAD,2023-11-30 11:10:43,15.08848815,0.0001515,53.2206,61.3094,93.3462,266.7704,-9.814e-05,-1.85e-05,0.0,0 STARLINK-4773,1 53838U 22114W   23334.46578643 -.00001850  00000-0 -98140-4 0  9997,2 53838  53.2206  61.3094 0001515  93.3462 266.7704 15.08848815 67091,6917.853,95.437,540.766,538.67,0.0
53838.0,STARLINK-4773,PAYLOAD,2023-11-30 12:46:06,15.08854898,0.000147,53.2199,61.0121,102.4083,257.7073,-4.7359e-05,-1.042e-05,0.0,0 STARLINK-4773,1 53838U 22114W   23334.53202091 -.00001042  00000-0 -47359-4 0  9995,2 53838  53.2199  61.0121 0001470 102.4083 257.7073 15.08854898 67100,6917.835,95.437,540.717,538.683,0.0
53838.0,STARLINK-4773,PAYLOAD,2023-12-01 11:01:31,15.08839147,0.0001628,53.2205,56.858,107.8389,252.2781,2.9096e-05,1.75e-06,0.0,0 STARLINK-4773,1 53838U 22114W   23335.45939245  .00000175  00000-0  29096-4 0  9997,2 53838  53.2205  56.8580 0001628 107.8389 252.2781 15.08839147 67243,6917.883,95.438,540.874,538.622,0.0
53838.0,STARLINK-4773,PAYLOAD,2023-12-02 10:52:18,15.08822631,0.0001373,53.2182,52.3878,78.0404,282.0742,-0.0002512,-4.282e-05,0.0,0 STARLINK-4773,1 53838U 22114W   23336.45299429 -.00004282  00000-0 -25120-3 0  9999,2 53838  53.2182  52.3878 0001373  78.0404 282.0742 15.08822631 67396,6917.933,95.439,540.748,538.849,0.0
53838.0,STARLINK-4773,PAYLOAD,2023-12-03 12:18:30,15.08827084,0.0001534,53.2191,47.6301,88.9113,271.2054,-0.00018223,-3.186e-05,0.0,0 STARLINK-4773,1 53838U 22114W   23337.51285835 -.00003186  00000-0 -18223-3 0  9991,2 53838  53.2191  47.6301 0001534  88.9113 271.2054 15.08827084 67551,6917.92,95.438,540.846,538.724,0.0
53838.0,STARLINK-4773,PAYLOAD,2023-12-03 13:53:53,15.08865456,0.0002796,53.2196,47.3324,119.0111,241.1162,-0.00071895,-0.00011721,0.0,0 STARLINK-4773,1 53838U 22114W   23337.57908590 -.00011721  00000-0 -71895-3 0  9995,2 53838  53.2196  47.3324 0002796 119.0111 241.1162 15.08865456 68106,6917.803,95.436,541.602,537.733,0.0
53838.0,STARLINK-4773,PAYLOAD,2023-12-03 23:26:12,15.08816399,0.0001311,53.2181,45.5515,74.3245,285.7892,0.00029721,4.442e-05,0.0,0 STARLINK-4773,1 53838U 22114W   23337.97653189  .00004442  00000-0  29721-3 0  9991,2 53838  53.2181  45.5515 0001311  74.3245 285.7892 15.08816399 67627,6917.953,95.439,540.724,538.911,0.0
53838.0,STARLINK-4773,PAYLOAD,2023-12-04 12:09:16,15.08837435,0.000154,53.2189,43.1755,76.5444,283.572,0.000397,6.035e-05,0.0,0 STARLINK-4773,1 53838U 22114W   23338.50644356  .00006035  00000-0  39700-3 0  9995,2 53838  53.2189  43.1755 0001540  76.5444 283.5720 15.08837435 67703,6917.888,95.438,540.819,538.688,0.0
53838.0,STARLINK-4773,PAYLOAD,2023-12-05 04:03:08,15.08835763,0.00013,53.2195,40.1977,110.1031,250.0101,0.00019092,2.752e-05,0.0,0 STARLINK-4773,1 53838U 22114W   23339.16885294  .00002752  00000-0  19092-3 0  9990,2 53838  53.2195  40.1977 0001300 110.1031 250.0101 15.08835763 67809,6917.893,95.438,540.658,538.859,0.0
53838.0,STARLINK-4773,PAYLOAD,2023-12-05 10:24:41,15.08834603,0.0001421,53.2184,39.0086,104.837,255.2779,0.00015445,2.171e-05,0.0,0 STARLINK-4773,1 53838U 22114W   23339.43381568  .00002171  00000-0  15445-3 0  9998,2 53838  53.2184  39.0086 0001421 104.8370 255.2779 15.08834603 68389,6917.897,95.438,540.745,538.779,0.0
53838.0,STARLINK-4773,PAYLOAD,2023-12-06 03:53:54,15.08854848,0.0001509,53.2187,35.7385,101.7169,258.3993,0.00012086,1.637e-05,0.0,0 STARLINK-4773,1 53838U 22114W   23340.16244120  .00001637  00000-0  12086-3 0  9996,2 53838  53.2187  35.7385 0001509 101.7169 258.3993 15.08854848 67953,6917.835,95.437,540.744,538.656,0.0
53838.0,STARLINK-4773,PAYLOAD,2023-12-06 10:15:26,15.08863806,0.0001523,53.2188,34.5501,92.9694,267.1473,0.00010515,1.387e-05,0.0,0 STARLINK-4773,1 53838U 22114W   23340.42739329  .00001387  00000-0  10515-3 0  9992,2 53838  53.2188  34.5501 0001523  92.9694 267.1473 15.08863806 67990,6917.808,95.436,540.726,538.619,0.0
53838.0,STARLINK-4773,PAYLOAD,2023-12-07 10:06:14,15.08841741,0.0001333,53.2187,30.0898,104.58,255.534,9.8201e-05,1.275e-05,0.0,0 STARLINK-4773,1 53838U 22114W   23341.42100190  .00001275  00000-0  98201-4 0  9996,2 53838  53.2187  30.0898 0001333 104.5800 255.5340 15.08841741 68143,6917.875,95.437,540.662,538.818,0.0
53838.0,STARLINK-4773,PAYLOAD,2023-12-07 13:17:00,15.0884515,0.0001304,53.219,29.4924,104.9568,255.1569,2.5702e-05,1.21e-06,0.0,0 STARLINK-4773,1 53838U 22114W   23341.55348030  .00000121  00000-0  25702-4 0  9992,2 53838  53.2190  29.4924 0001304 104.9568 255.1569 15.08845150 68701,6917.865,95.437,540.632,538.828,0.0
53838.0,STARLINK-4773,PAYLOAD,2023-12-08 09:57:01,15.08849353,0.0001251,53.2184,25.6254,100.6183,259.495,-9.1687e-05,-1.747e-05,0.0,0 STARLINK-4773,1 53838U 22114W   23342.41459727 -.00001747  00000-0 -91687-4 0  9996,2 53838  53.2184  25.6254 0001251 100.6183 259.4950 15.08849353 68839,6917.852,95.437,540.582,538.851,0.0
53838.0,STARLINK-4773,PAYLOAD,2023-12-09 03:26:15,15.08836214,0.0001285,53.2186,22.3543,91.4273,268.6866,8.5435e-05,1.072e-05,0.0,0 STARLINK-4773,1 53838U 22114W   23343.14323979  .00001072  00000-0  85435-4 0  9999,2 53838  53.2186  22.3543 0001285  91.4273 268.6866 15.08836214 68403,6917.892,95.438,540.646,538.868,0.0
53838.0,STARLINK-4773,PAYLOAD,2023-12-09 12:58:34,15.08841818,0.0001317,53.2185,20.5704,90.6234,269.4909,0.00012523,1.706e-05,0.0,0 STARLINK-4773,1 53838U 22114W   23343.54067580  .00001706  00000-0  12523-3 0  9997,2 53838  53.2185  20.5704 0001317  90.6234 269.4909 15.08841818 69005,6917.875,95.437,540.651,538.829,0.0
53838.0,STARLINK-4773,PAYLOAD,2023-12-11 09:29:22,15.08843066,0.0001432,53.2187,12.2424,90.9134,269.2022,4.1805e-05,3.77e-06,0.0,0 STARLINK-4773,1 53838U 22114W   23345.39540161  .00000377  00000-0  41805-4 0  9992,2 53838  53.2187  12.2424 0001432  90.9134 269.2022 15.08843066 68745,6917.871,95.437,540.727,538.745,0.0
53838.0,STARLINK-4773,PAYLOAD,2023-12-12 09:20:09,15.08845017,0.0001773,53.2188,7.7854,71.8101,288.3084,7.4427e-05,8.97e-06,0.0,0 STARLINK-4773,1 53838U 22114W   23346.38900387  .00000897  00000-0  74427-4 0  9995,2 53838  53.2188   7.7854 0001773  71.8101 288.3084 15.08845017 69437,6917.865,95.437,540.957,538.504,0.0
53838.0,STARLINK-4773,PAYLOAD,2023-12-13 07:35:33,15.08841454,0.0001749,53.2189,3.6229,74.7007,285.4179,2.823e-05,1.61e-06,0.0,0 STARLINK-4773,1 53838U 22114W   23347.31636565  .00000161  00000-0  28230-4 0  9998,2 53838  53.2189   3.6229 0001749  74.7007 285.4179 15.08841454 69039,6917.876,95.437,540.951,538.531,0.0
